ONEWEB-0709             
1 55172U 23004AJ  24183.92212288  .00000358  00000+0  97324-3 0  9994
2 55172  87.8966 163.4500 0001497  54.7323 305.3945 13.11418139 72123
ONEWEB-0710             
1 55173U 23004AK  24183.88553219 -.00000017  00000+0 -77866-4 0  9996
2 55173  87.9174 148.3012 0001907  84.1453 275.9896 13.17646836 73382
ONEWEB-0711             
1 55174U 23004AL  24183.89329089 -.00000485  00000+0 -14037-2 0  9992
2 55174  87.8965 163.4248 0001935 113.2630 246.8702 13.11416189 72080
ONEWEB-0713             
1 55175U 23004AM  24184.21713696 -.00000157  00000+0 -47738-3 0  9992
2 55175  87.8967 163.3689 0001967  97.3206 262.8146 13.11419154 72116
ONEWEB-0715             
1 55176U 23004AN  24183.90685488 -.00000256  00000+0 -75943-3 0  9994
2 55176  87.8967 163.4304 0001660  83.2935 276.8382 13.11417735 72115
ONEWEB-0716             
1 55177U 23004AP  24184.18280465  .00000077  00000+0  16444-3 0  9992
2 55177  87.9176 148.2339 0002281  83.3711 276.7681 13.17649771 73420
ONEWEB-0717             
1 55178U 23004AQ  24183.93721571  .00000066  00000+0  13644-3 0  9990
2 55178  87.9174 148.2467 0001477 108.5882 251.5410 13.17650430 73443
ONEWEB-0719             
1 55179U 23004AR  24183.94853722 -.00000026  00000+0 -99296-4 0  9992
2 55179  87.9175 148.2309 0002324  89.0458 271.0940 13.17646571 73394
ONEWEB-0530             
1 55796U 23029A   24184.17361167 -.00000325  00000+0 -83201-3 0  9997
2 55796  87.9203  56.7330 0001754 100.6540 259.4791 13.20771601 67479
ONEWEB-0534             
1 55797U 23029B   24184.16099235  .00000096  00000+0  20340-3 0  9999
2 55797  87.9204  56.7425 0002031  82.5782 277.5582 13.20770535 67453
ONEWEB-0556             
1 55798U 23029C   24184.16732722  .00000038  00000+0  61003-4 0  9993
2 55798  87.9203  56.7347 0002572  96.7230 263.4196 13.20771964 67453
ONEWEB-0562             
1 55799U 23029D   24183.92740714  .00000038  00000+0  62299-4 0  9995
2 55799  87.9205  56.7731 0002270 110.6869 249.4508 13.20773216 66735
ONEWEB-0563             
1 55800U 23029E   24184.14836191  .00000103  00000+0  22137-3 0  9997
2 55800  87.9204  56.7440 0002174  86.0001 274.1381 13.20773200 67436
ONEWEB-0564             
1 55801U 23029F   24184.14204746 -.00000218  00000+0 -56911-3 0  9999
2 55801  87.9204  56.7306 0001681  94.9189 265.2136 13.20772092 67476
ONEWEB-0638             
1 55802U 23029G   24183.96200059 -.00000389  00000+0 -10848-2 0  9999
2 55802  87.8962  72.0503 0002533  84.0873 276.0545 13.14502452 65436
ONEWEB-0639             
1 55803U 23029H   24183.77628641  .00000068  00000+0  13805-3 0  9999
2 55803  87.9154  87.3379 0003034  55.0506 305.0911 13.19723631 64549
ONEWEB-0640             
1 55804U 23029J   24183.74316554  .00000111  00000+0  26447-3 0  9999
2 55804  87.8959  72.0897 0002788  81.1575 278.9870 13.14505157 65425
ONEWEB-0641             
1 55805U 23029K   24183.77154930  .00000067  00000+0  13469-3 0  9991
2 55805  87.9151  87.3207 0002127  70.8902 289.2461 13.19727495 64551
ONEWEB-0642             
1 55806U 23029L   24184.14590104  .00000082  00000+0  17130-3 0  9997
2 55806  87.9155  87.2691 0002578  53.5889 306.5482 13.19724818 65287
ONEWEB-0643             
1 55807U 23029M   24183.94139319 -.00000134  00000+0 -39482-3 0  9996
2 55807  87.8960  72.0275 0001877  46.4960 313.6325 13.14503790 65423
ONEWEB-0644             
1 55808U 23029N   24184.21697076  .00000101  00000+0  22059-3 0  9991
2 55808  87.9158  87.2513 0002237  60.7834 299.3522 13.19727241 65295
ONEWEB-0645             
1 55809U 23029P   24183.75812063  .00000057  00000+0  11110-3 0  9991
2 55809  87.9156  87.3439 0002519  71.1874 288.9532 13.19727618 64545
ONEWEB-0646             
1 55810U 23029Q   24183.78811476 -.00000008  00000+0 -53133-4 0  9993
2 55810  87.9154  87.3372 0001985  69.3018 290.8327 13.19730525 64530
ONEWEB-0648             
1 55811U 23029R   24184.21414331  .00000285  00000+0  73317-3 0  9992
2 55811  87.8960  71.9443 0002766  60.5240 299.6165 13.14505637 66179
ONEWEB-0649             
1 55812U 23029S   24184.20593265  .00000084  00000+0  17780-3 0  9995
2 55812  87.9151  87.2496 0002251  68.8490 291.2883 13.19728436 65317
ONEWEB-0650             
1 55813U 23029T   24183.74627464 -.00000036  00000+0 -12204-3 0  9998
2 55813  87.9155  87.3431 0002040  67.6620 292.4729 13.19727496 64530
ONEWEB-0652             
1 55814U 23029U   24184.19511006 -.00000017  00000+0 -79731-4 0  9991
2 55814  87.8960  71.9598 0001851  81.8199 278.3141 13.14498759 66125
ONEWEB-0653             
1 55815U 23029V   24183.95089831 -.00000187  00000+0 -53786-3 0  9990
2 55815  87.8964  71.9888 0002111  85.1592 274.9779 13.14500895 65433
ONEWEB-0654             
1 55816U 23029W   24184.17449553 -.00000150  00000+0 -43973-3 0  9994
2 55816  87.8961  71.9540 0001865  93.6549 266.4794 13.14501068 66175
ONEWEB-0656             
1 55817U 23029X   24184.21149588  .00000121  00000+0  26468-3 0  9991
2 55817  87.9204  56.6589 0001369 100.0829 260.0459 13.20770397 67453
ONEWEB-0657             
1 55818U 23029Y   24183.74151467 -.00000927  00000+0 -23478-2 0  9991
2 55818  87.9154  87.3493 0001004  74.7341 285.3903 13.19727034 64544
ONEWEB-0658             
1 55819U 23029Z   24183.96424927  .00000024  00000+0  26405-4 0  9991
2 55819  87.9152  87.2405 0002228  61.5996 298.5361 13.19727880 64581
ONEWEB-0660             
1 55820U 23029AA  24183.92395359  .00000102  00000+0  24111-3 0  9993
2 55820  87.8960  71.9787 0002399  75.9024 284.2372 13.14501372 65432
ONEWEB-0661             
1 55821U 23029AB  24184.18720118 -.00001175  00000+0 -32046-2 0  9996
2 55821  87.8959  71.9933 0002315  80.9699 279.1692 13.14496740 66145
ONEWEB-0662             
1 55822U 23029AC  24183.91759370  .00000261  00000+0  67064-3 0  9991
2 55822  87.8961  72.0545 0002281  74.4341 285.7041 13.14511497 65466
ONEWEB-0663             
1 55823U 23029AD  24184.20430232  .00000063  00000+0  12400-3 0  9992
2 55823  87.9203  56.7210 0002245  75.2214 284.9168 13.20790336 67442
ONEWEB-0664             
1 55824U 23029AE  24183.89584357  .00000125  00000+0  27481-3 0  9999
2 55824  87.9206  56.7960 0002279  91.0714 269.0681 13.20773428 66723
ONEWEB-0665             
1 55825U 23029AF  24183.95565661 -.00000404  00000+0 -11253-2 0  9995
2 55825  87.8961  72.0140 0002242  76.0035 284.1344 13.14502407 65443
ONEWEB-0666             
1 55826U 23029AG  24183.88953029  .00000033  00000+0  49126-4 0  9995
2 55826  87.9205  56.7879 0001582  93.4414 266.6900 13.20770167 66737
ONEWEB-0667             
1 55827U 23029AH  24184.18624839  .00000039  00000+0  64354-4 0  9990
2 55827  87.9205  56.6622 0002211  82.9382 277.2002 13.20773647 67446
ONEWEB-0669             
1 55828U 23029AJ  24183.87849009  .00000002  00000+0 -26225-4 0  9990
2 55828  87.9204  56.7611 0001989 105.2560 254.8794 13.20772065 66725
ONEWEB-0670             
1 55829U 23029AK  24183.93347173  .00000015  00000+0  46624-5 0  9992
2 55829  87.8965  72.0249 0002408  83.2978 276.8426 13.14503102 65465
ONEWEB-0671             
1 55830U 23029AL  24183.95951125  .00000039  00000+0  66258-4 0  9994
2 55830  87.9153  87.3040 0002256  79.5080 280.6306 13.19724608 64569
ONEWEB-0672             
1 55831U 23029AM  24183.87374063  .00000012  00000+0 -24007-5 0  9995
2 55831  87.9205  56.7459 0001561  87.4153 272.7159 13.20773850 66722
ONEWEB-0673             
1 55832U 23029AN  24183.78417751 -.00000334  00000+0 -86618-3 0  9990
2 55832  87.9152  87.3058 0002267  76.9250 283.2136 13.19725305 64544
ONEWEB-0674             
1 55833U 23029AP  24183.74951405  .00000200  00000+0  50620-3 0  9990
2 55833  87.8959  72.0662 0002422  87.0872 273.0535 13.14505973 65427
ONEWEB-0675             
1 55834U 23029AQ  24183.72416972 -.00000018  00000+0 -77717-4 0  9990
2 55834  87.9156  87.3514 0001641  67.6825 292.4482 13.19726357 64552
ONEWEB-0720             
1 55835U 23029AR  24183.79208063  .00000067  00000+0  13471-3 0  9996
2 55835  87.9155  87.3383 0002348  68.5100 291.6283 13.19727327 64487
ONEWEB-0537             
1 56046U 23043A   24184.06320389  .00000067  00000+0  14167-3 0  9997
2 56046  87.9096  11.1317 0001481  90.6499 269.4801 13.16595807 65777
ONEWEB-0538             
1 56047U 23043B   24183.90487872  .00000094  00000+0  21304-3 0  9992
2 56047  87.9098  11.1828 0001709  80.5511 279.5813 13.16595985 64853
ONEWEB-0546             
1 56048U 23043C   24183.89221427  .00000033  00000+0  53670-4 0  9998
2 56048  87.9098  11.1493 0001216 115.2214 244.9043 13.16595021 64842
ONEWEB-0547             
1 56049U 23043D   24183.84267502 -.00000481  00000+0 -11950-2 0  9990
2 56049  87.9276  26.3830 0001933  79.0414 281.0937 13.21831743 63729
ONEWEB-0548             
1 56050U 23043E   24183.91753797  .00000024  00000+0  29587-4 0  9994
2 56050  87.9098  11.1877 0002379  97.5727 262.5674 13.16596528 64842
ONEWEB-0549             
1 56051U 23043F   24184.06109529  .00000107  00000+0  22663-3 0  9999
2 56051  87.9280  26.3396 0001891  81.6001 278.5348 13.21824745 64663
ONEWEB-0550             
1 56052U 23043G   24183.82138793  .00000094  00000+0  19675-3 0  9992
2 56052  87.9276  26.3946 0002021  87.4049 272.7316 13.21824439 63729
ONEWEB-0551             
1 56053U 23043H   24184.14029246  .00000157  00000+0  38224-3 0  9992
2 56053  87.9029  41.5292 0001898  75.9827 284.1514 13.15548758 63295
ONEWEB-0552             
1 56054U 23043J   24183.81508912  .00000107  00000+0  22735-3 0  9993
2 56054  87.9277  26.4059 0002187  83.3348 276.8035 13.21827147 63720
ONEWEB-0553             
1 56055U 23043K   24183.89852955  .00000092  00000+0  20785-3 0  9997
2 56055  87.9096  11.1799 0001494  97.4570 262.6730 13.16596541 64850
ONEWEB-0554             
1 56056U 23043L   24183.88588548  .00000143  00000+0  34117-3 0  9992
2 56056  87.9098  11.2040 0002482  95.7374 264.4040 13.16595860 65740
